{
  "type": "FeatureCollection",
  "features": [
    {
      "type": "Feature",
      "properties": {
        "name": "48 Continental USA Route",
        "description": "Complete route through all 48 contiguous US states"
      },
      "geometry": {
        "type": "LineString",
        "coordinates": [
          [
            -97.3964,
            27.8006
          ],
          [
            -110.9747,
            32.2226
          ],
          [
            -112.1401,
            36.0544
          ],
          [
            -118.2437,
            34.0522
          ],
          [
            -121.5008,
            36.0074
          ],
          [
            -124.0046,
            41.2132
          ],
          [
            -117.3644,
            46.8791
          ],
          [
            -123.9615,
            45.8918
          ],
          [
            -122.9007,
            47.0379
          ],
          [
            -122.3321,
            47.6062
          ],
          [
            -110.5885,
            44.428
          ],
          [
            -111.891,
            40.7608
          ],
          [
            -111.6585,
            40.2338
          ],
          [
            -104.9903,
            39.7392
          ],
          [
            -105.0844,
            40.5853
          ],
          [
            -96.7898,
            46.8772
          ],
          [
            -96.7311,
            43.5446
          ],
          [
            -96.7026,
            40.8136
          ],
          [
            -87.6298,
            41.8781
          ],
          [
            -87.9065,
            43.0389
          ],
          [
            -93.265,
            44.9778
          ],
          [
            -85.6206,
            44.7631
          ],
          [
            -82.9988,
            39.9612
          ],
          [
            -87.4139,
            39.4667
          ],
          [
            -75.1652,
            39.9526
          ],
          [
            -73.7562,
            42.6526
          ],
          [
            -72.454,
            43.734
          ],
          [
            -68.2039,
            44.3876
          ],
          [
            -72.6734,
            41.7658
          ],
          [
            -71.0589,
            42.3601
          ],
          [
            -71.4128,
            41.824
          ],
          [
            -74.1724,
            40.7357
          ],
          [
            -75.5398,
            39.7391
          ],
          [
            -77.7389,
            39.3254
          ],
          [
            -78.6382,
            35.7796
          ],
          [
            -80.5495,
            34.9854
          ],
          [
            -82.5515,
            35.5951
          ],
          [
            -81.932,
            34.9496
          ],
          [
            -81.0912,
            32.0809
          ],
          [
            -82.5307,
            27.3364
          ],
          [
            -84.2807,
            30.4383
          ],
          [
            -83.9207,
            35.9606
          ],
          [
            -88.0399,
            30.6954
          ],
          [
            -90.0715,
            29.9511
          ],
          [
            -90.1848,
            32.2988
          ],
          [
            -92.2896,
            34.7465
          ],
          [
            -97.7431,
            30.2672
          ]
        ]
      }
    },
    {
      "type": "Feature",
      "properties": {
        "id": "stop-88vj1j1",
        "name": "Corpus Christi",
        "state": "TX",
        "description": "Trip begins – depart early morning",
        "type": "start",
        "charging": false,
        "overnight": false
      },
      "geometry": {
        "type": "Point",
        "coordinates": [
          -97.3964,
          27.8006
        ]
      }
    },
    {
      "type": "Feature",
      "properties": {
        "id": "stop-0uu2fn6",
        "name": "Tucson",
        "state": "AZ",
        "description": "Drive day + overnight recharge",
        "type": "overnight",
        "charging": true,
        "overnight": true
      },
      "geometry": {
        "type": "Point",
        "coordinates": [
          -110.9747,
          32.2226
        ]
      }
    },
    {
      "type": "Feature",
      "properties": {
        "id": "stop-b7srj8y",
        "name": "Grand Canyon",
        "state": "AZ",
        "description": "1.5-day scenic visit",
        "type": "waypoint",
        "charging": false,
        "overnight": false
      },
      "geometry": {
        "type": "Point",
        "coordinates": [
          -112.1401,
          36.0544
        ]
      }
    },
    {
      "type": "Feature",
      "properties": {
        "id": "stop-325cogh",
        "name": "Los Angeles",
        "state": "CA",
        "description": "Visit Laurent (1 day)",
        "type": "waypoint",
        "charging": false,
        "overnight": false
      },
      "geometry": {
        "type": "Point",
        "coordinates": [
          -118.2437,
          34.0522
        ]
      }
    },
    {
      "type": "Feature",
      "properties": {
        "id": "stop-3om5wc3",
        "name": "Santa Barbara → Big Sur",
        "state": "CA",
        "description": "Coastal beach drive north",
        "type": "waypoint",
        "charging": false,
        "overnight": false
      },
      "geometry": {
        "type": "Point",
        "coordinates": [
          -121.5008,
          36.0074
        ]
      }
    },
    {
      "type": "Feature",
      "properties": {
        "id": "stop-y8btxdk",
        "name": "Redwoods",
        "state": "CA",
        "description": "1.5-day stay in the forest",
        "type": "waypoint",
        "charging": false,
        "overnight": false
      },
      "geometry": {
        "type": "Point",
        "coordinates": [
          -124.0046,
          41.2132
        ]
      }
    },
    {
      "type": "Feature",
      "properties": {
        "id": "stop-w28llba",
        "name": "Colfax",
        "state": "WA",
        "description": "Visit Stefan Morris (2 full days)",
        "type": "waypoint",
        "charging": false,
        "overnight": false
      },
      "geometry": {
        "type": "Point",
        "coordinates": [
          -117.3644,
          46.8791
        ]
      }
    },
    {
      "type": "Feature",
      "properties": {
        "id": "stop-lyvlyil",
        "name": "Oregon Coast",
        "state": "OR",
        "description": "1 full day beach stop",
        "type": "waypoint",
        "charging": false,
        "overnight": false
      },
      "geometry": {
        "type": "Point",
        "coordinates": [
          -123.9615,
          45.8918
        ]
      }
    },
    {
      "type": "Feature",
      "properties": {
        "id": "stop-2dd4v7p",
        "name": "Olympia",
        "state": "WA",
        "description": "Visit Brian",
        "type": "waypoint",
        "charging": false,
        "overnight": false
      },
      "geometry": {
        "type": "Point",
        "coordinates": [
          -122.9007,
          47.0379
        ]
      }
    },
    {
      "type": "Feature",
      "properties": {
        "id": "stop-n9toay3",
        "name": "Seattle",
        "state": "WA",
        "description": "Visit Troy before 6/20 camping",
        "type": "waypoint",
        "charging": false,
        "overnight": false
      },
      "geometry": {
        "type": "Point",
        "coordinates": [
          -122.3321,
          47.6062
        ]
      }
    },
    {
      "type": "Feature",
      "properties": {
        "id": "stop-is6w8uv",
        "name": "Yellowstone",
        "state": "MT/WY",
        "description": "2-night park stay",
        "type": "waypoint",
        "charging": false,
        "overnight": false
      },
      "geometry": {
        "type": "Point",
        "coordinates": [
          -110.5885,
          44.428
        ]
      }
    },
    {
      "type": "Feature",
      "properties": {
        "id": "stop-4pag9a0",
        "name": "Salt Lake City",
        "state": "UT",
        "description": "Visit Brady Covington",
        "type": "waypoint",
        "charging": false,
        "overnight": false
      },
      "geometry": {
        "type": "Point",
        "coordinates": [
          -111.891,
          40.7608
        ]
      }
    },
    {
      "type": "Feature",
      "properties": {
        "id": "stop-efevsk3",
        "name": "Provo",
        "state": "UT",
        "description": "Visit Erin Lane (after her travel blackout)",
        "type": "waypoint",
        "charging": false,
        "overnight": false
      },
      "geometry": {
        "type": "Point",
        "coordinates": [
          -111.6585,
          40.2338
        ]
      }
    },
    {
      "type": "Feature",
      "properties": {
        "id": "stop-jdncxmq",
        "name": "Denver",
        "state": "CO",
        "description": "Visit Josh",
        "type": "waypoint",
        "charging": false,
        "overnight": false
      },
      "geometry": {
        "type": "Point",
        "coordinates": [
          -104.9903,
          39.7392
        ]
      }
    },
    {
      "type": "Feature",
      "properties": {
        "id": "stop-0mdwi86",
        "name": "Fort Collins",
        "state": "CO",
        "description": "Visit Caleb Blakeman",
        "type": "waypoint",
        "charging": false,
        "overnight": false
      },
      "geometry": {
        "type": "Point",
        "coordinates": [
          -105.0844,
          40.5853
        ]
      }
    },
    {
      "type": "Feature",
      "properties": {
        "id": "stop-25wkz7r",
        "name": "Fargo",
        "state": "ND",
        "description": "North Dakota overnight",
        "type": "overnight",
        "charging": true,
        "overnight": true
      },
      "geometry": {
        "type": "Point",
        "coordinates": [
          -96.7898,
          46.8772
        ]
      }
    },
    {
      "type": "Feature",
      "properties": {
        "id": "stop-b23o665",
        "name": "Sioux Falls",
        "state": "SD",
        "description": "South Dakota stop",
        "type": "waypoint",
        "charging": false,
        "overnight": false
      },
      "geometry": {
        "type": "Point",
        "coordinates": [
          -96.7311,
          43.5446
        ]
      }
    },
    {
      "type": "Feature",
      "properties": {
        "id": "stop-mdl2x67",
        "name": "Lincoln",
        "state": "NE",
        "description": "Visit Parents & Hayden (4 days)",
        "type": "waypoint",
        "charging": false,
        "overnight": false
      },
      "geometry": {
        "type": "Point",
        "coordinates": [
          -96.7026,
          40.8136
        ]
      }
    },
    {
      "type": "Feature",
      "properties": {
        "id": "stop-zqxm6no",
        "name": "Chicago",
        "state": "IL",
        "description": "Visit Connor McBride",
        "type": "waypoint",
        "charging": false,
        "overnight": false
      },
      "geometry": {
        "type": "Point",
        "coordinates": [
          -87.6298,
          41.8781
        ]
      }
    },
    {
      "type": "Feature",
      "properties": {
        "id": "stop-8cm3aav",
        "name": "Milwaukee",
        "state": "WI",
        "description": "Wisconsin stopover",
        "type": "waypoint",
        "charging": false,
        "overnight": false
      },
      "geometry": {
        "type": "Point",
        "coordinates": [
          -87.9065,
          43.0389
        ]
      }
    },
    {
      "type": "Feature",
      "properties": {
        "id": "stop-d1f5hi0",
        "name": "Minneapolis",
        "state": "MN",
        "description": "Minnesota drive-through",
        "type": "waypoint",
        "charging": false,
        "overnight": false
      },
      "geometry": {
        "type": "Point",
        "coordinates": [
          -93.265,
          44.9778
        ]
      }
    },
    {
      "type": "Feature",
      "properties": {
        "id": "stop-jdkcmxk",
        "name": "Traverse City",
        "state": "MI",
        "description": "\"Scenic lakeshore",
        "type": "waypoint",
        "charging": false,
        "overnight": false
      },
      "geometry": {
        "type": "Point",
        "coordinates": [
          -85.6206,
          44.7631
        ]
      }
    },
    {
      "type": "Feature",
      "properties": {
        "id": "stop-l9tl2ph",
        "name": "Columbus",
        "state": "OH",
        "description": "Visit Cameron Hynes",
        "type": "waypoint",
        "charging": false,
        "overnight": false
      },
      "geometry": {
        "type": "Point",
        "coordinates": [
          -82.9988,
          39.9612
        ]
      }
    },
    {
      "type": "Feature",
      "properties": {
        "id": "stop-u72c5ei",
        "name": "Terre Haute",
        "state": "IN",
        "description": "Visit Jack Lavey",
        "type": "waypoint",
        "charging": false,
        "overnight": false
      },
      "geometry": {
        "type": "Point",
        "coordinates": [
          -87.4139,
          39.4667
        ]
      }
    },
    {
      "type": "Feature",
      "properties": {
        "id": "stop-imvv7f8",
        "name": "Philadelphia",
        "state": "PA",
        "description": "City stop / route setup",
        "type": "waypoint",
        "charging": false,
        "overnight": false
      },
      "geometry": {
        "type": "Point",
        "coordinates": [
          -75.1652,
          39.9526
        ]
      }
    },
    {
      "type": "Feature",
      "properties": {
        "id": "stop-opx9tqf",
        "name": "Albany",
        "state": "NY",
        "description": "Visit Philip Dalton (optional)",
        "type": "waypoint",
        "charging": false,
        "overnight": false
      },
      "geometry": {
        "type": "Point",
        "coordinates": [
          -73.7562,
          42.6526
        ]
      }
    },
    {
      "type": "Feature",
      "properties": {
        "id": "stop-mauvauy",
        "name": "Montpelier / Concord",
        "state": "VT/NH",
        "description": "Check off New England states",
        "type": "waypoint",
        "charging": false,
        "overnight": false
      },
      "geometry": {
        "type": "Point",
        "coordinates": [
          -72.454,
          43.734
        ]
      }
    },
    {
      "type": "Feature",
      "properties": {
        "id": "stop-0q8oljm",
        "name": "Bar Harbor",
        "state": "ME",
        "description": "1.5-day scenic East Coast top",
        "type": "waypoint",
        "charging": false,
        "overnight": false
      },
      "geometry": {
        "type": "Point",
        "coordinates": [
          -68.2039,
          44.3876
        ]
      }
    },
    {
      "type": "Feature",
      "properties": {
        "id": "stop-56f0n2h",
        "name": "Hartford",
        "state": "CT",
        "description": "Visit Deanna for July 4th (4 days)",
        "type": "waypoint",
        "charging": false,
        "overnight": false
      },
      "geometry": {
        "type": "Point",
        "coordinates": [
          -72.6734,
          41.7658
        ]
      }
    },
    {
      "type": "Feature",
      "properties": {
        "id": "stop-jk36ip8",
        "name": "Boston",
        "state": "MA",
        "description": "Wrap-up Northeast",
        "type": "waypoint",
        "charging": false,
        "overnight": false
      },
      "geometry": {
        "type": "Point",
        "coordinates": [
          -71.0589,
          42.3601
        ]
      }
    },
    {
      "type": "Feature",
      "properties": {
        "id": "stop-uay7kf9",
        "name": "Providence",
        "state": "RI",
        "description": "Quick state check-in",
        "type": "waypoint",
        "charging": false,
        "overnight": false
      },
      "geometry": {
        "type": "Point",
        "coordinates": [
          -71.4128,
          41.824
        ]
      }
    },
    {
      "type": "Feature",
      "properties": {
        "id": "stop-t2l14wz",
        "name": "Newark",
        "state": "NJ",
        "description": "Southbound entry",
        "type": "waypoint",
        "charging": false,
        "overnight": false
      },
      "geometry": {
        "type": "Point",
        "coordinates": [
          -74.1724,
          40.7357
        ]
      }
    },
    {
      "type": "Feature",
      "properties": {
        "id": "stop-vxnyw84",
        "name": "Wilmington",
        "state": "DE",
        "description": "Check off DE",
        "type": "waypoint",
        "charging": false,
        "overnight": false
      },
      "geometry": {
        "type": "Point",
        "coordinates": [
          -75.5398,
          39.7391
        ]
      }
    },
    {
      "type": "Feature",
      "properties": {
        "id": "stop-ucshrd0",
        "name": "Harpers Ferry",
        "state": "WV",
        "description": "Scenic + historic",
        "type": "waypoint",
        "charging": false,
        "overnight": false
      },
      "geometry": {
        "type": "Point",
        "coordinates": [
          -77.7389,
          39.3254
        ]
      }
    },
    {
      "type": "Feature",
      "properties": {
        "id": "stop-wuss3rh",
        "name": "Raleigh",
        "state": "NC",
        "description": "Visit Brad Gross",
        "type": "waypoint",
        "charging": false,
        "overnight": false
      },
      "geometry": {
        "type": "Point",
        "coordinates": [
          -78.6382,
          35.7796
        ]
      }
    },
    {
      "type": "Feature",
      "properties": {
        "id": "stop-0cmrwug",
        "name": "Monroe",
        "state": "NC",
        "description": "Visit Nana & Pawpaw — birthday 7/21",
        "type": "waypoint",
        "charging": false,
        "overnight": false
      },
      "geometry": {
        "type": "Point",
        "coordinates": [
          -80.5495,
          34.9854
        ]
      }
    },
    {
      "type": "Feature",
      "properties": {
        "id": "stop-xkzht9r",
        "name": "Asheville",
        "state": "NC",
        "description": "Appalachian Trail area after Monroe",
        "type": "waypoint",
        "charging": false,
        "overnight": false
      },
      "geometry": {
        "type": "Point",
        "coordinates": [
          -82.5515,
          35.5951
        ]
      }
    },
    {
      "type": "Feature",
      "properties": {
        "id": "stop-erssngb",
        "name": "Spartanburg",
        "state": "SC",
        "description": "Visit Max Mosley",
        "type": "waypoint",
        "charging": false,
        "overnight": false
      },
      "geometry": {
        "type": "Point",
        "coordinates": [
          -81.932,
          34.9496
        ]
      }
    },
    {
      "type": "Feature",
      "properties": {
        "id": "stop-6fsud2r",
        "name": "Savannah",
        "state": "GA",
        "description": "Lowcountry drive",
        "type": "waypoint",
        "charging": false,
        "overnight": false
      },
      "geometry": {
        "type": "Point",
        "coordinates": [
          -81.0912,
          32.0809
        ]
      }
    },
    {
      "type": "Feature",
      "properties": {
        "id": "stop-wxvzdsz",
        "name": "Sarasota",
        "state": "FL",
        "description": "Visit John & Sarah",
        "type": "waypoint",
        "charging": false,
        "overnight": false
      },
      "geometry": {
        "type": "Point",
        "coordinates": [
          -82.5307,
          27.3364
        ]
      }
    },
    {
      "type": "Feature",
      "properties": {
        "id": "stop-h6oo3j3",
        "name": "Tallahassee",
        "state": "FL",
        "description": "Florida panhandle drive",
        "type": "waypoint",
        "charging": false,
        "overnight": false
      },
      "geometry": {
        "type": "Point",
        "coordinates": [
          -84.2807,
          30.4383
        ]
      }
    },
    {
      "type": "Feature",
      "properties": {
        "id": "stop-1cetvv4",
        "name": "Knoxville",
        "state": "TN",
        "description": "Visit Barton after Florida",
        "type": "waypoint",
        "charging": false,
        "overnight": false
      },
      "geometry": {
        "type": "Point",
        "coordinates": [
          -83.9207,
          35.9606
        ]
      }
    },
    {
      "type": "Feature",
      "properties": {
        "id": "stop-2siwm66",
        "name": "Mobile",
        "state": "AL",
        "description": "Gulf Coast rest stop",
        "type": "waypoint",
        "charging": false,
        "overnight": false
      },
      "geometry": {
        "type": "Point",
        "coordinates": [
          -88.0399,
          30.6954
        ]
      }
    },
    {
      "type": "Feature",
      "properties": {
        "id": "stop-j3uxdwm",
        "name": "New Orleans",
        "state": "LA",
        "description": "Jazz & culture stop",
        "type": "waypoint",
        "charging": false,
        "overnight": false
      },
      "geometry": {
        "type": "Point",
        "coordinates": [
          -90.0715,
          29.9511
        ]
      }
    },
    {
      "type": "Feature",
      "properties": {
        "id": "stop-dd5828h",
        "name": "Jackson",
        "state": "MS",
        "description": "Southern swing",
        "type": "waypoint",
        "charging": false,
        "overnight": false
      },
      "geometry": {
        "type": "Point",
        "coordinates": [
          -90.1848,
          32.2988
        ]
      }
    },
    {
      "type": "Feature",
      "properties": {
        "id": "stop-m25g34b",
        "name": "Little Rock",
        "state": "AR",
        "description": "Quick overnight",
        "type": "overnight",
        "charging": true,
        "overnight": true
      },
      "geometry": {
        "type": "Point",
        "coordinates": [
          -92.2896,
          34.7465
        ]
      }
    },
    {
      "type": "Feature",
      "properties": {
        "id": "stop-rxn5s52",
        "name": "Austin",
        "state": "TX",
        "description": "Final return — trip ends at 60 days",
        "type": "end",
        "charging": false,
        "overnight": false
      },
      "geometry": {
        "type": "Point",
        "coordinates": [
          -97.7431,
          30.2672
        ]
      }
    }
  ]
}